0 CZ-3C DEB
1 39351U 10057R   13292.22344592 -.00000147  00000-0  33990-2 0    26
2 39351 020.8400 268.4757 7086778 135.3930 310.6645 02.26290716 18024
